[
    {
        "CCSDS_OMM_VERS": "3.0",
        "COMMENT": "GENERATED VIA SPACE-TRACK.ORG API",
        "CREATION_DATE": "2025-04-12T22:09:39",
        "ORIGINATOR": "18 SPCS",
        "OBJECT_NAME": "COSMOS 2485 (GLONASS)",
        "OBJECT_ID": "2013-019A",
        "CENTER_NAME": "EARTH",
        "REF_FRAME": "TEME",
        "TIME_SYSTEM": "UTC",
        "MEAN_ELEMENT_THEORY": "SGP4",
        "EPOCH": "2025-04-12T03:09:54.840672",
        "MEAN_MOTION": "2.13104572",
        "ECCENTRICITY": "0.00246690",
        "INCLINATION": "65.1857",
        "RA_OF_ASC_NODE": "88.0958",
        "ARG_OF_PERICENTER": "238.1731",
        "MEAN_ANOMALY": "121.5823",
        "EPHEMERIS_TYPE": "0",
        "CLASSIFICATION_TYPE": "U",
        "NORAD_CAT_ID": "39155",
        "ELEMENT_SET_NO": "999",
        "REV_AT_EPOCH": "9309",
        "BSTAR": "0.00000000000000",
        "MEAN_MOTION_DOT": "0.00000027",
        "MEAN_MOTION_DDOT": "0.0000000000000",
        "SEMIMAJOR_AXIS": "25507.819",
        "PERIOD": "675.725",
        "APOAPSIS": "19192.609",
        "PERIAPSIS": "19066.759",
        "OBJECT_TYPE": "PAYLOAD",
        "RCS_SIZE": "LARGE",
        "COUNTRY_CODE": "CIS",
        "LAUNCH_DATE": "2013-04-26",
        "SITE": "PKMTR",
        "DECAY_DATE": null,
        "FILE": "4699941",
        "GP_ID": "285444413",
        "TLE_LINE0": "0 COSMOS 2485 (GLONASS)",
        "TLE_LINE1": "1 39155U 13019A   25102.13188473  .00000027  00000-0  00000-0 0  9991",
        "TLE_LINE2": "2 39155  65.1857  88.0958 0024669 238.1731 121.5823  2.13104572 93095"
    }
]